TRANSPORTER-10 OBJECT AD
1 59125U 24043AD  26068.86032889  .00011954  00000+0  36311-3 0  9997
2 59125  97.5470 207.3753 0008984 221.4908 138.5653 15.34189901112026
STARLINK-32566          
1 61958U 24209V   26068.52133124  .00023211  00000+0  79376-3 0  9992
2 61958  53.1604 143.0063 0001270  77.4445 282.6698 15.30183721 74898
